STARLINK-35927          
1 66624U 25271H   25353.94751832 -.00403682  00000+0 -84107-2 0  9994
2 66624  53.1590 152.7553 0000849 106.2501 253.8600 15.46532201  5326
STARLINK-35929          
1 66625U 25271J   25354.25003472  .00049951  00000+0  12519-2 0  9991
2 66625  53.1591 151.3853 0000821  88.3039 120.8369 15.39588721  5451
STARLINK-35902          
1 66626U 25271K   25354.25003472  .00050844  00000+0  12737-2 0  9997
2 66626  53.1601 151.5388 0001313  87.4430  44.4279 15.39594692  5456
STARLINK-35904          
1 66627U 25271L   25354.25003472  .00049920  00000+0  12510-2 0  9990
2 66627  53.1591 151.4361 0000796  85.7841  97.5885 15.39590441  5298
STARLINK-35862          
1 66628U 25271M   25353.94580738 -.00373781  00000+0 -77533-2 0  9994
2 66628  53.1592 152.7424 0002224  62.1747 297.9486 15.46540943  5323
STARLINK-35956          
1 66629U 25271N   25352.66667824  .00012088  00000+0  22385-3 0  9999
2 66629  53.1591 158.8460 0000542  63.7637   4.4961 15.49463337  5194
STARLINK-35949          
1 66630U 25271P   25353.88047524 -.00279700  00000+0 -56580-2 0  9996
2 66630  53.1593 153.0444 0003221  47.5604 312.5676 15.46903837  5319
STARLINK-35965          
1 66631U 25271Q   25354.25003472  .00069551  00000+0  14228-2 0  9995
2 66631  53.1594 151.2829 0001213  58.4920 201.3878 15.45510993  5459
STARLINK-35973          
1 66632U 25271R   25353.78116063  .00032612  00000+0  82132-3 0  9992
2 66632  53.1599 153.8489 0000983  75.4861 284.6253 15.39637359  5259
STARLINK-35948          
1 66633U 25271S   25353.71591720  .00026866  00000+0  67904-3 0  9997
2 66633  53.1596 154.1516 0001044  81.5844 278.5279 15.39629537  5282
STARLINK-35967          
1 66634U 25271T   25354.00002315  .00015406  00000+0  39440-3 0  9990
2 66634  53.1601 152.7619 0000988  59.4964 101.9399 15.39616609  5346
STARLINK-35955          
1 66635U 25271U   25354.25003472  .00049681  00000+0  12451-2 0  9997
2 66635  53.1597 151.4814 0001065  97.3247  62.1321 15.39591842  5452
