CCSDS_OMM_VERS = 2.0
CREATION_DATE  = 
ORIGINATOR     = 

OBJECT_NAME    = STARLINK-35927
OBJECT_ID      = 2025-271H
CENTER_NAME    = EARTH
REF_FRAME      = TEME
TIME_SYSTEM    = UTC
MEAN_ELEMENT_THEORY = SGP/SGP4

EPOCH          = 2025-12-19T22:44:25.582848
MEAN_MOTION    = 15.46532201
ECCENTRICITY   = .0000849
INCLINATION    = 53.1590
RA_OF_ASC_NODE = 152.7553
ARG_OF_PERICENTER = 106.2501
MEAN_ANOMALY   = 253.8600

EPHEMERIS_TYPE = 0
CLASSIFICATION_TYPE = U
NORAD_CAT_ID   = 66624
ELEMENT_SET_NO = 999
REV_AT_EPOCH   = 532
BSTAR          = -.84107E-2
MEAN_MOTION_DOT = -.403682E-2
MEAN_MOTION_DDOT = 0

CCSDS_OMM_VERS = 2.0
CREATION_DATE  = 
ORIGINATOR     = 

OBJECT_NAME    = STARLINK-35929
OBJECT_ID      = 2025-271J
CENTER_NAME    = EARTH
REF_FRAME      = TEME
TIME_SYSTEM    = UTC
MEAN_ELEMENT_THEORY = SGP/SGP4

EPOCH          = 2025-12-20T06:00:02.999808
MEAN_MOTION    = 15.39588721
ECCENTRICITY   = .00008216
INCLINATION    = 53.1591
RA_OF_ASC_NODE = 151.3853
ARG_OF_PERICENTER = 88.3039
MEAN_ANOMALY   = 120.8369

EPHEMERIS_TYPE = 0
CLASSIFICATION_TYPE = U
NORAD_CAT_ID   = 66625
ELEMENT_SET_NO = 999
REV_AT_EPOCH   = 545
BSTAR          = .12518636E-2
MEAN_MOTION_DOT = .49951E-3
MEAN_MOTION_DDOT = 0

CCSDS_OMM_VERS = 2.0
CREATION_DATE  = 
ORIGINATOR     = 

OBJECT_NAME    = STARLINK-35902
OBJECT_ID      = 2025-271K
CENTER_NAME    = EARTH
REF_FRAME      = TEME
TIME_SYSTEM    = UTC
MEAN_ELEMENT_THEORY = SGP/SGP4

EPOCH          = 2025-12-20T06:00:02.999808
MEAN_MOTION    = 15.39594692
ECCENTRICITY   = .00013134
INCLINATION    = 53.1601
RA_OF_ASC_NODE = 151.5388
ARG_OF_PERICENTER = 87.4430
MEAN_ANOMALY   = 44.4279

EPHEMERIS_TYPE = 0
CLASSIFICATION_TYPE = U
NORAD_CAT_ID   = 66626
ELEMENT_SET_NO = 999
REV_AT_EPOCH   = 545
BSTAR          = .12736818E-2
MEAN_MOTION_DOT = .50844E-3
MEAN_MOTION_DDOT = 0

CCSDS_OMM_VERS = 2.0
CREATION_DATE  = 
ORIGINATOR     = 

OBJECT_NAME    = STARLINK-35904
OBJECT_ID      = 2025-271L
CENTER_NAME    = EARTH
REF_FRAME      = TEME
TIME_SYSTEM    = UTC
MEAN_ELEMENT_THEORY = SGP/SGP4

EPOCH          = 2025-12-20T06:00:02.999808
MEAN_MOTION    = 15.39590441
ECCENTRICITY   = .00007967
INCLINATION    = 53.1591
RA_OF_ASC_NODE = 151.4361
ARG_OF_PERICENTER = 85.7841
MEAN_ANOMALY   = 97.5885

EPHEMERIS_TYPE = 0
CLASSIFICATION_TYPE = U
NORAD_CAT_ID   = 66627
ELEMENT_SET_NO = 999
REV_AT_EPOCH   = 529
BSTAR          = .12510223E-2
MEAN_MOTION_DOT = .4992E-3
MEAN_MOTION_DDOT = 0

CCSDS_OMM_VERS = 2.0
CREATION_DATE  = 
ORIGINATOR     = 

OBJECT_NAME    = STARLINK-35862
OBJECT_ID      = 2025-271M
CENTER_NAME    = EARTH
REF_FRAME      = TEME
TIME_SYSTEM    = UTC
MEAN_ELEMENT_THEORY = SGP/SGP4

EPOCH          = 2025-12-19T22:41:57.757632
MEAN_MOTION    = 15.46540943
ECCENTRICITY   = .0002224
INCLINATION    = 53.1592
RA_OF_ASC_NODE = 152.7424
ARG_OF_PERICENTER = 62.1747
MEAN_ANOMALY   = 297.9486

EPHEMERIS_TYPE = 0
CLASSIFICATION_TYPE = U
NORAD_CAT_ID   = 66628
ELEMENT_SET_NO = 999
REV_AT_EPOCH   = 532
BSTAR          = -.77533E-2
MEAN_MOTION_DOT = -.373781E-2
MEAN_MOTION_DDOT = 0

CCSDS_OMM_VERS = 2.0
CREATION_DATE  = 
ORIGINATOR     = 

OBJECT_NAME    = STARLINK-35956
OBJECT_ID      = 2025-271N
CENTER_NAME    = EARTH
REF_FRAME      = TEME
TIME_SYSTEM    = UTC
MEAN_ELEMENT_THEORY = SGP/SGP4

EPOCH          = 2025-12-18T16:00:00.999936
MEAN_MOTION    = 15.49463337
ECCENTRICITY   = .00005424
INCLINATION    = 53.1591
RA_OF_ASC_NODE = 158.8460
ARG_OF_PERICENTER = 63.7637
MEAN_ANOMALY   = 4.4961

EPHEMERIS_TYPE = 0
CLASSIFICATION_TYPE = U
NORAD_CAT_ID   = 66629
ELEMENT_SET_NO = 999
REV_AT_EPOCH   = 519
BSTAR          = .2238515E-3
MEAN_MOTION_DOT = .12088E-3
MEAN_MOTION_DDOT = 0

CCSDS_OMM_VERS = 2.0
CREATION_DATE  = 
ORIGINATOR     = 

OBJECT_NAME    = STARLINK-35949
OBJECT_ID      = 2025-271P
CENTER_NAME    = EARTH
REF_FRAME      = TEME
TIME_SYSTEM    = UTC
MEAN_ELEMENT_THEORY = SGP/SGP4

EPOCH          = 2025-12-19T21:07:53.060736
MEAN_MOTION    = 15.46903837
ECCENTRICITY   = .0003221
INCLINATION    = 53.1593
RA_OF_ASC_NODE = 153.0444
ARG_OF_PERICENTER = 47.5604
MEAN_ANOMALY   = 312.5676

EPHEMERIS_TYPE = 0
CLASSIFICATION_TYPE = U
NORAD_CAT_ID   = 66630
ELEMENT_SET_NO = 999
REV_AT_EPOCH   = 531
BSTAR          = -.5658E-2
MEAN_MOTION_DOT = -.2797E-2
MEAN_MOTION_DDOT = 0

CCSDS_OMM_VERS = 2.0
CREATION_DATE  = 
ORIGINATOR     = 

OBJECT_NAME    = STARLINK-35965
OBJECT_ID      = 2025-271Q
CENTER_NAME    = EARTH
REF_FRAME      = TEME
TIME_SYSTEM    = UTC
MEAN_ELEMENT_THEORY = SGP/SGP4

EPOCH          = 2025-12-20T06:00:02.999808
MEAN_MOTION    = 15.45510993
ECCENTRICITY   = .00012135
INCLINATION    = 53.1594
RA_OF_ASC_NODE = 151.2829
ARG_OF_PERICENTER = 58.4920
MEAN_ANOMALY   = 201.3878

EPHEMERIS_TYPE = 0
CLASSIFICATION_TYPE = U
NORAD_CAT_ID   = 66631
ELEMENT_SET_NO = 999
REV_AT_EPOCH   = 545
BSTAR          = .14228081E-2
MEAN_MOTION_DOT = .69551E-3
MEAN_MOTION_DDOT = 0

CCSDS_OMM_VERS = 2.0
CREATION_DATE  = 
ORIGINATOR     = 

OBJECT_NAME    = STARLINK-35973
OBJECT_ID      = 2025-271R
CENTER_NAME    = EARTH
REF_FRAME      = TEME
TIME_SYSTEM    = UTC
MEAN_ELEMENT_THEORY = SGP/SGP4

EPOCH          = 2025-12-19T18:44:52.278432
MEAN_MOTION    = 15.39637359
ECCENTRICITY   = .00009834
INCLINATION    = 53.1599
RA_OF_ASC_NODE = 153.8489
ARG_OF_PERICENTER = 75.4861
MEAN_ANOMALY   = 284.6253

EPHEMERIS_TYPE = 0
CLASSIFICATION_TYPE = U
NORAD_CAT_ID   = 66632
ELEMENT_SET_NO = 999
REV_AT_EPOCH   = 525
BSTAR          = .82132207E-3
MEAN_MOTION_DOT = .32612E-3
MEAN_MOTION_DDOT = 0

CCSDS_OMM_VERS = 2.0
CREATION_DATE  = 
ORIGINATOR     = 

OBJECT_NAME    = STARLINK-35948
OBJECT_ID      = 2025-271S
CENTER_NAME    = EARTH
REF_FRAME      = TEME
TIME_SYSTEM    = UTC
MEAN_ELEMENT_THEORY = SGP/SGP4

EPOCH          = 2025-12-19T17:10:55.246080
MEAN_MOTION    = 15.39629537
ECCENTRICITY   = .00010441
INCLINATION    = 53.1596
RA_OF_ASC_NODE = 154.1516
ARG_OF_PERICENTER = 81.5844
MEAN_ANOMALY   = 278.5279

EPHEMERIS_TYPE = 0
CLASSIFICATION_TYPE = U
NORAD_CAT_ID   = 66633
ELEMENT_SET_NO = 999
REV_AT_EPOCH   = 528
BSTAR          = .6790438E-3
MEAN_MOTION_DOT = .26866E-3
MEAN_MOTION_DDOT = 0

CCSDS_OMM_VERS = 2.0
CREATION_DATE  = 
ORIGINATOR     = 

OBJECT_NAME    = STARLINK-35967
OBJECT_ID      = 2025-271T
CENTER_NAME    = EARTH
REF_FRAME      = TEME
TIME_SYSTEM    = UTC
MEAN_ELEMENT_THEORY = SGP/SGP4

EPOCH          = 2025-12-20T00:00:02.000160
MEAN_MOTION    = 15.39616609
ECCENTRICITY   = .00009881
INCLINATION    = 53.1601
RA_OF_ASC_NODE = 152.7619
ARG_OF_PERICENTER = 59.4964
MEAN_ANOMALY   = 101.9399

EPHEMERIS_TYPE = 0
CLASSIFICATION_TYPE = U
NORAD_CAT_ID   = 66634
ELEMENT_SET_NO = 999
REV_AT_EPOCH   = 534
BSTAR          = .39440356E-3
MEAN_MOTION_DOT = .15406E-3
MEAN_MOTION_DDOT = 0

CCSDS_OMM_VERS = 2.0
CREATION_DATE  = 
ORIGINATOR     = 

OBJECT_NAME    = STARLINK-35955
OBJECT_ID      = 2025-271U
CENTER_NAME    = EARTH
REF_FRAME      = TEME
TIME_SYSTEM    = UTC
MEAN_ELEMENT_THEORY = SGP/SGP4

EPOCH          = 2025-12-20T06:00:02.999808
MEAN_MOTION    = 15.39591842
ECCENTRICITY   = .00010654
INCLINATION    = 53.1597
RA_OF_ASC_NODE = 151.4814
ARG_OF_PERICENTER = 97.3247
MEAN_ANOMALY   = 62.1321

EPHEMERIS_TYPE = 0
CLASSIFICATION_TYPE = U
NORAD_CAT_ID   = 66635
ELEMENT_SET_NO = 999
REV_AT_EPOCH   = 545
BSTAR          = .12450655E-2
MEAN_MOTION_DOT = .49681E-3
MEAN_MOTION_DDOT = 0

